ONEWEB-0066             
1 45424U 20020A   23338.13238845 -.00000451  00000+0 -13082-2 0  9993
2 45424  87.8988 205.0812 0001026  89.6146 270.5100 13.11417867181318
ONEWEB-0067             
1 45425U 20020B   23338.15594076  .00000461  00000+0  12656-2 0  9992
2 45425  87.8975 205.0462 0001379  68.4743 291.6532 13.11417427181376
ONEWEB-0080             
1 45426U 20020C   23338.10481867  .00000201  00000+0  53237-3 0  9994
2 45426  87.8988 205.0894 0001203  93.1350 266.9916 13.11412358181330
ONEWEB-0090             
1 45427U 20020D   23337.58857001 -.00000586  00000+0 -16887-2 0  9990
2 45427  87.8983 205.1688 0001341  82.2318 277.8962 13.11416021181225
ONEWEB-0061             
1 45428U 20020E   23338.15513038  .00000365  00000+0  99331-3 0  9993
2 45428  87.8989 205.0594 0001325  80.2413 279.8864 13.11420474181256
ONEWEB-0081             
1 45429U 20020F   23338.13563739 -.00000322  00000+0 -94362-3 0  9999
2 45429  87.8988 205.0814 0001306  72.7922 287.3349 13.11417600181362
ONEWEB-0069             
1 45430U 20020G   23337.59183406 -.00000543  00000+0 -15666-2 0  9993
2 45430  87.8981 205.1784 0001437  83.1255 277.0036 13.11418811181223
ONEWEB-0031             
1 45431U 20020H   23337.71522003  .00000493  00000+0  13549-2 0  9998
2 45431  87.8985 205.1512 0001751  79.9103 280.2223 13.11415985181224
